ORBCOMM FM06            
1 25118U 97084G   26161.53867817  .00001150  00000+0  34886-3 0  9994
2 25118  45.0139  84.7178 0001750 310.6270 223.5739 14.47546354493424
ORBCOMM FM04            
1 25159U 98007C   26161.49671955  .00000775  00000+0  31079-3 0  9999
2 25159 107.9626 155.6494 0041124 336.2934  23.6311 14.35729022475637
ORBCOMM FM19            
1 25415U 98046C   26159.60637546  .00000874  00000+0  32314-3 0  9998
2 25415  44.9944 284.3488 0004317 247.3219 131.3998 14.39482707455545
ORBCOMM FM20            
1 25416U 98046D   26161.06589807  .00000569  00000+0  23271-3 0  9991
2 25416  44.9949 285.2554 0001850 226.4731 133.5964 14.38057184455768
ORBCOMM FM27            
1 25481U 98053G   26160.89855490  .00000814  00000+0  30634-3 0  9999
2 25481  45.0065   9.9716 0000329 142.8182 217.2690 14.39127851449188
ORBCOMM FM32            
1 25982U 99065C   26161.40834503  .00000453  00000+0  19843-3 0  9997
2 25982  45.0138 205.3274 0004924 359.8512   0.2334 14.37122683386112
ORBCOMM FM109           
1 40086U 14040A   26161.18104661  .00000400  00000+0  12090-3 0  9998
2 40086  47.0021 124.6108 0001707 226.4310 133.6434 14.58837357633321
ORBCOMM FM114           
1 41179U 15081A   26161.33530056  .00000390  00000+0  11875-3 0  9994
2 41179  47.0059  34.3990 0002055 179.4060 180.6828 14.58850721556758
ORBCOMM FM110           
1 41182U 15081D   26160.98135969  .00000629  00000+0  16934-3 0  9998
2 41182  47.0029  35.5134 0002777  34.0124 326.0939 14.58869109556579
ORBCOMM FM118           
1 41183U 15081E   26159.37192238  .00002733  00000+0  61393-3 0  9999
2 41183  47.0109  43.4533 0003135 338.0740  22.0011 14.58872980556441
ORBCOMM FM112           
1 41184U 15081F   26161.08878541  .00000540  00000+0  15048-3 0  9999
2 41184  47.0001 303.8133 0003307 186.7885 173.2956 14.58893591557912
ORBCOMM FM113           
1 41185U 15081G   26161.13367850  .00000377  00000+0  11609-3 0  9999
2 41185  47.0018 303.9737 0001875 196.8389 163.2434 14.58851189557907
ORBCOMM FM108           
1 41187U 15081J   26161.43856351  .00000375  00000+0  11555-3 0  9991
2 41187  47.0038 214.1055 0002595 194.3867 165.6945 14.58863816559096
ORBCOMM FM117           
1 41188U 15081K   26160.85616420  .00000388  00000+0  11832-3 0  9990
2 41188  47.0001 215.4948 0003096 194.0139 166.0662 14.58859516559057
ORBCOMM FM116           
1 41189U 15081L   26161.11063401  .00000563  00000+0  15516-3 0  9994
2 41189  47.0034 304.0813 0000962  15.3603 344.7311 14.58872358557907
